{"fetched_at":"2026-03-29T16:36:15Z","count":15609,"tles":[{"name":"KUIPER-00160","line1":"1 67765U 26030B   26087.82784042  .00028783  00000+0  80897-3 0  9992","line2":"2 67765  51.8826 126.8486 0005793 107.4961 252.6659 15.36272224  8030","category":"Other"}]}