{
  "norad_id": 67765,
  "name": "KUIPER-00160",
  "history": [
    {
      "epoch": "2026-03-28T19:52:05.412288",
      "apogee_km": 461.10440485449726,
      "perigee_km": 453.1840910612382,
      "latitude_deg": 46.07691185042958,
      "longitude_deg": -44.02731967996806,
      "semi_major_axis_km": 6835.281247957867,
      "eccentricity": 0.00057937,
      "inclination_deg": 51.8826,
      "raan_deg": 126.8486,
      "arg_perigee_deg": 107.4961,
      "mean_anomaly_deg": 252.6659,
      "mean_motion_rev_day": 15.36272224
    }
  ]
}